{
    "links": {
        "self": "http://www.neowsapp.com/rest/v1/neo/3265906?api_key=iIulBulltgU6a56xZRHN4H3l9WmuAYTsLGpBGhQ2"
    },
    "id": "3265906",
    "neo_reference_id": "3265906",
    "name": "(2005 AZ28)",
    "designation": "2005 AZ28",
    "nasa_jpl_url": "http://ssd.jpl.nasa.gov/sbdb.cgi?sstr=3265906",
    "absolute_magnitude_h": 24.0,
    "estimated_diameter": {
        "kilometers": {
            "estimated_diameter_min": 0.0421264611,
            "estimated_diameter_max": 0.0941976306
        },
        "meters": {
            "estimated_diameter_min": 42.1264610556,
            "estimated_diameter_max": 94.1976305719
        },
        "miles": {
            "estimated_diameter_min": 0.0261761612,
            "estimated_diameter_max": 0.0585316759
        },
        "feet": {
            "estimated_diameter_min": 138.2101784897,
            "estimated_diameter_max": 309.0473542854
        }
    },
    "is_potentially_hazardous_asteroid": false,
    "close_approach_data": [
        {
            "close_approach_date": "2004-11-30",
            "close_approach_date_full": "2004-Nov-30 19:22",
            "epoch_date_close_approach": 1101842520000,
            "relative_velocity": {
                "kilometers_per_second": "5.176937044",
                "kilometers_per_hour": "18636.9733582417",
                "miles_per_hour": "11580.2904736252"
            },
            "miss_distance": {
                "astronomical": "0.0286581782",
                "lunar": "11.1480313198",
                "kilometers": "4287202.416800434",
                "miles": "2663944.0530726292"
            },
            "orbiting_body": "Earth"
        },
        {
            "close_approach_date": "2090-01-21",
            "close_approach_date_full": "2090-Jan-21 02:25",
            "epoch_date_close_approach": 3788648700000,
            "relative_velocity": {
                "kilometers_per_second": "20.200836425",
                "kilometers_per_hour": "72723.0111300425",
                "miles_per_hour": "45187.2509991089"
            },
            "miss_distance": {
                "astronomical": "0.4729609681",
                "lunar": "183.9818165909",
                "kilometers": "70753953.420897947",
                "miles": "43964467.9962757886"
            },
            "orbiting_body": "Earth"
        }
    ],
    "orbital_data": {
        "orbit_id": "6",
        "orbit_determination_date": "2017-04-06 09:11:35",
        "first_observation_date": "2005-01-15",
        "last_observation_date": "2005-01-16",
        "data_arc_in_days": 1,
        "observations_used": 13,
        "orbit_uncertainty": "9",
        "minimum_orbit_intersection": ".0227387",
        "jupiter_tisserand_invariant": "4.548",
        "epoch_osculation": "2453386.5",
        "eccentricity": ".3410166692332844",
        "semi_major_axis": "1.465488424171477",
        "inclination": "1.599613769212775",
        "ascending_node_longitude": "313.8867614663078",
        "orbital_period": "647.995537922628",
        "perihelion_distance": ".9657324429605852",
        "perihelion_argument": "100.7441106292824",
        "aphelion_distance": "1.965244405382369",
        "perihelion_time": "2453328.005525531208",
        "mean_anomaly": "32.49715403330368",
        "mean_motion": ".5555593810940481",
        "equinox": "J2000",
        "orbit_class": {
            "orbit_class_type": "APO",
            "orbit_class_description": "Near-Earth asteroid orbits which cross the Earth’s orbit similar to that of 1862 Apollo",
            "orbit_class_range": "a (semi-major axis) > 1.0 AU; q (perihelion) < 1.017 AU"
        }
    },
    "is_sentry_object": false
}